     2.10           G: GLONASS NAV DATA                     RINEX VERSION / TYPE
teqc  2015Jun23                         20220117 01:25:44UTCPGM / RUN BY / DATE
Linux 2.4.21-27.ELsmp|Opteron|gcc -static|Linux x86_64|=+   COMMENT
  2021    12    24    0.000000000000D+00                    CORR TO SYSTEM TIME
                                                            END OF HEADER
 3 21 12 25  8 45  0.0 4.875473678112D-05 0.000000000000D+00 3.060000000000D+04
   -5.721573730469D+03-1.721982955933D-01-0.000000000000D+00 0.000000000000D+00
    1.835590869141D+04-2.292316436768D+00 2.793967723846D-09 5.000000000000D+00
   -1.669150781250D+04-2.461617469788D+00 0.000000000000D+00 0.000000000000D+00
15 21 12 25  8 45  0.0 9.936466813087D-05-0.000000000000D+00 3.060000000000D+04
    7.036458496094D+03-2.548492431641D+00-9.313225746155D-10 0.000000000000D+00
    1.357020898438D+04-1.146562576294D+00-0.000000000000D+00 0.000000000000D+00
    2.043584960938D+04 1.640529632568D+00-2.793967723846D-09 0.000000000000D+00
17 21 12 25  8 45  0.0 4.866300150752D-04 2.728484105319D-12 3.060000000000D+04
   -1.873457275391D+04-3.878154754639D-01-0.000000000000D+00 0.000000000000D+00
    1.667937597656D+04 5.681505203247D-01 2.793967723846D-09 4.000000000000D+00
   -4.734673828125D+03 3.520636558533D+00-0.000000000000D+00 0.000000000000D+00
18 21 12 25  8 45  0.0 1.016361638904D-04 0.000000000000D+00 3.060000000000D+04
   -6.872391113281D+03-2.014055252075D+00-0.000000000000D+00 0.000000000000D+00
    1.561036132812D+04 1.653558731079D+00 2.793967723846D-09-3.000000000000D+00
   -1.892464160156D+04 2.097325325012D+00 0.000000000000D+00 0.000000000000D+00
24 21 12 25  8 45  0.0 7.271952927113D-05 1.818989403546D-12 3.060000000000D+04
   -2.082656542969D+04 1.467740058899D+00-0.000000000000D+00 0.000000000000D+00
    7.926157226562D+03-8.733863830566D-01 9.313225746155D-10 2.000000000000D+00
    1.245203906250D+04 3.014944076538D+00-9.313225746155D-10 0.000000000000D+00
15 21 12 25  9 15  0.0 9.936466813087D-05-0.000000000000D+00 3.240000000000D+04
    2.034710449219D+03-2.967520713806D+00-9.313225746155D-10 0.000000000000D+00
    1.175588134766D+04-8.407621383667D-01-0.000000000000D+00 0.000000000000D+00
    2.256200732422D+04 7.066001892090D-01-2.793967723846D-09 0.000000000000D+00
 4 21 12 25  9 15  0.0 1.204852014780D-04 1.818989403546D-12 3.240000000000D+04
    2.610822265625D+03-8.442115783691D-02-0.000000000000D+00 0.000000000000D+00
    2.425061279297D+04-1.031723976135D+00 2.793967723846D-09 6.000000000000D+00
   -7.422343750000D+03-3.391524314880D+00-9.313225746155D-10 0.000000000000D+00
 3 21 12 25  9 15  0.0 4.875473678112D-05 0.000000000000D+00 3.240000000000D+04
   -6.433801269531D+03-6.345920562744D-01 0.000000000000D+00 0.000000000000D+00
    1.378946289062D+04-2.735338211060D+00 2.793967723846D-09 5.000000000000D+00
   -2.041611181641D+04-1.649853706360D+00 9.313225746155D-10 0.000000000000D+00
 5 21 12 25  9 15  0.0 8.479226380587D-05 0.000000000000D+00 3.240000000000D+04
    1.006765820312D+04 4.872770309448D-01-9.313225746155D-10 0.000000000000D+00
    2.132435498047D+04 1.246709823608D+00 9.313225746155D-10 1.000000000000D+00
    9.695870605469D+03-3.252193450928D+00-1.862645149231D-09 0.000000000000D+00
17 21 12 25  9 15  0.0 4.866365343332D-04 3.637978807092D-12 3.240000000000D+04
   -1.876946679688D+04 3.243055343628D-01-0.000000000000D+00 0.000000000000D+00
    1.722293603516D+04 1.563072204590D-03 1.862645149231D-09 4.000000000000D+00
    1.703423828125D+03 3.586452484131D+00-9.313225746155D-10 0.000000000000D+00
18 21 12 25  9 15  0.0 1.016380265355D-04 0.000000000000D+00 3.240000000000D+04
   -9.869670898438D+03-1.305470466614D+00-0.000000000000D+00 0.000000000000D+00
    1.850313623047D+04 1.513161659241D+00 2.793967723846D-09-3.000000000000D+00
   -1.446408544922D+04 2.826577186584D+00 0.000000000000D+00 0.000000000000D+00
 4 21 12 25  9 45  0.0 1.204879954457D-04 1.818989403546D-12 3.420000000000D+04
    2.079981933594D+03-5.332183837891D-01 0.000000000000D+00 0.000000000000D+00
    2.173149414062D+04-1.733470916748D+00 2.793967723846D-09 6.000000000000D+00
   -1.316060644531D+04-2.942812919617D+00-0.000000000000D+00 0.000000000000D+00
 5 21 12 25  9 45  0.0 8.479226380587D-05 0.000000000000D+00 3.420000000000D+04
    1.085751464844D+04 3.479652404785D-01-0.000000000000D+00 0.000000000000D+00
    2.279329931641D+04 3.832340240479D-01 1.862645149231D-09 1.000000000000D+00
    3.542261230469D+03-3.540698051453D+00-1.862645149231D-09 0.000000000000D+00
 3 21 12 25  9 45  0.0 4.875566810369D-05 0.000000000000D+00 3.420000000000D+04
   -8.030012695312D+03-1.136502265930D+00 0.000000000000D+00 0.000000000000D+00
    8.686315429688D+03-2.883875846863D+00 2.793967723846D-09 5.000000000000D+00
   -2.255410498047D+04-7.102994918823D-01 9.313225746155D-10 0.000000000000D+00
17 21 12 25  9 45  0.0 4.866430535913D-04 3.637978807092D-12 3.420000000000D+04
   -1.768237744141D+04 8.454313278198D-01 0.000000000000D+00 0.000000000000D+00
    1.658682763672D+04-7.276182174683D-01 9.313225746155D-10 4.000000000000D+00
    8.010171386719D+03 3.375674247742D+00-9.313225746155D-10 0.000000000000D+00
18 21 12 25  9 45  0.0 1.016398891807D-04 0.000000000000D+00 3.420000000000D+04
   -1.156884667969D+04-5.913629531860D-01 0.000000000000D+00 0.000000000000D+00
    2.088871728516D+04 1.092668533325D+00 2.793967723846D-09-3.000000000000D+00
   -8.880893554688D+03 3.336525917053D+00-0.000000000000D+00 0.000000000000D+00
15 21 12 25  9 45  0.0 9.936373680830D-05-0.000000000000D+00 3.447000000000D+04
   -3.479732910156D+03-3.109807014465D+00-0.000000000000D+00 0.000000000000D+00
    1.061891552734D+04-4.099035263062D-01-0.000000000000D+00 0.000000000000D+00
    2.294692724609D+04-2.816629409790D-01-2.793967723846D-09 0.000000000000D+00
19 21 12 25  9 45  0.0-1.719575375319D-04-9.094947017729D-13 3.534000000000D+04
   -5.650512695312D+02-1.735628128052D+00 0.000000000000D+00 0.000000000000D+00
    1.492701855469D+04 2.247659683228D+00 2.793967723846D-09 3.000000000000D+00
   -2.067123535156D+04 1.669316291809D+00 0.000000000000D+00 0.000000000000D+00
 4 21 12 25 10 15  0.0 1.204907894135D-04 1.818989403546D-12 3.600000000000D+04
    6.179628906250D+02-1.103293418884D+00 0.000000000000D+00 0.000000000000D+00
    1.815465380859D+04-2.195644378662D+00 2.793967723846D-09 6.000000000000D+00
   -1.787920947266D+04-2.265934944153D+00 0.000000000000D+00 0.000000000000D+00
 5 21 12 25 10 15  0.0 8.479319512844D-05 0.000000000000D+00 3.600000000000D+04
    1.117346240234D+04-3.461647033691D-02 0.000000000000D+00 0.000000000000D+00
    2.273140917969D+04-4.348897933960D-01 2.793967723846D-09 1.000000000000D+00
   -2.885693359375D+03-3.555009841919D+00-9.313225746155D-10 0.000000000000D+00
17 21 12 25 10 15  0.0 4.866495728493D-04 3.637978807092D-12 3.600000000000D+04
   -1.587785302734D+04 1.114823341370D+00 0.000000000000D+00 0.000000000000D+00
    1.456708886719D+04-1.517031669617D+00 9.313225746155D-10 4.000000000000D+00
    1.369933300781D+04 2.904701232910D+00-9.313225746155D-10 0.000000000000D+00
18 21 12 25 10 15  0.0 1.016408205032D-04 0.000000000000D+00 3.600000000000D+04
   -1.206317382812D+04 1.584434509277D-02 0.000000000000D+00 0.000000000000D+00
    2.229140820312D+04 4.313602447510D-01 1.862645149231D-09-3.000000000000D+00
   -2.608415527344D+03 3.587454795837D+00-0.000000000000D+00 0.000000000000D+00
19 21 12 25 10 15  0.0-1.719603314996D-04-9.094947017729D-13 3.600000000000D+04
   -3.121876464844D+03-1.099538803101D+00 0.000000000000D+00 0.000000000000D+00
    1.884084423828D+04 2.051121711731D+00 2.793967723846D-09 3.000000000000D+00
   -1.690589648438D+04 2.487201690674D+00 0.000000000000D+00 0.000000000000D+00
15 21 12 25 10 15  0.0 9.936373680830D-05-0.000000000000D+00 3.612000000000D+04
   -8.976822753906D+03-2.947362899780D+00-0.000000000000D+00 0.000000000000D+00
    1.029356591797D+04 4.309272766113D-02 0.000000000000D+00 0.000000000000D+00
    2.156111035156D+04-1.248165130615D+00-1.862645149231D-09 0.000000000000D+00
 4 21 12 25 10 45  0.0 1.204935833812D-04 1.818989403546D-12 3.780000000000D+04
   -1.902332031250D+03-1.690549850464D+00 9.313225746155D-10 0.000000000000D+00
    1.399981250000D+04-2.371651649475D+00 2.793967723846D-09 6.000000000000D+00
   -2.121227636719D+04-1.413361549377D+00 9.313225746155D-10 0.000000000000D+00
 5 21 12 25 10 45  0.0 8.479412645102D-05 0.000000000000D+00 3.780000000000D+04
    1.061589208984D+04-6.109590530396D-01 0.000000000000D+00 0.000000000000D+00
    2.132001757812D+04-1.100070953369D+00 2.793967723846D-09 1.000000000000D+00
   -9.090097656250D+03-3.293920516968D+00-0.000000000000D+00 0.000000000000D+00
15 21 12 25 10 45  0.0 9.936373680830D-05-0.000000000000D+00 3.780000000000D+04
   -1.391722412109D+04-2.498025894165D+00-0.000000000000D+00 0.000000000000D+00
    1.072367041016D+04 4.126491546631D-01 0.000000000000D+00 0.000000000000D+00
    1.851138867188D+04-2.118485450745D+00-9.313225746155D-10 0.000000000000D+00
17 21 12 25 10 45  0.0 4.866560921073D-04 3.637978807092D-12 3.780000000000D+04
   -1.383099951172D+04 1.115811347961D+00-0.000000000000D+00 0.000000000000D+00
    1.115919091797D+04-2.250488281250D+00-0.000000000000D+00 4.000000000000D+00
    1.833240576172D+04 2.209822654724D+00-1.862645149231D-09 0.000000000000D+00
18 21 12 25 10 45  0.0 1.016426831484D-04 9.094947017729D-13 3.780000000000D+04
   -1.163075732422D+04 4.260663986206D-01 0.000000000000D+00 0.000000000000D+00
    2.234498193359D+04-3.900318145752D-01 1.862645149231D-09-3.000000000000D+00
    3.866477539062D+03 3.560009002686D+00-9.313225746155D-10 0.000000000000D+00
19 21 12 25 10 45  0.0-1.719631254673D-04-9.094947017729D-13 3.780000000000D+04
   -4.537603515625D+03-4.868526458740D-01 9.313225746155D-10 0.000000000000D+00
    2.213661572266D+04 1.565443992615D+00 2.793967723846D-09 3.000000000000D+00
   -1.183307666016D+04 3.112643241882D+00-0.000000000000D+00 0.000000000000D+00
